[
    {
        "Altitude(m)": 624790.8282011538,
        "Argument of Periapsis(deg)": 0.0,
        "Eccentricity": 0.0,
        "Inclination(deg)": 60.0,
        "Latitude(deg)": -59.147216057847146,
        "Longitude(deg)": -128.96550638260302,
        "Mean Anomaly(deg)": 278.1818,
        "RAAN(deg)": 45.0,
        "Satellite Name": "Test1 215",
        "Satellite Number": 215,
        "Semi-Major Axis(m)": 6980739.136638005,
        "Time(s)": 0
    },
    {
        "Altitude(m)": 624737.4837936306,
        "Argument of Periapsis(deg)": 0.00010418945913296404,
        "Eccentricity": 0.0,
        "Inclination(deg)": 60.0,
        "Latitude(deg)": -58.99467250097033,
        "Longitude(deg)": -127.8460003938603,
        "Mean Anomaly(deg)": 278.8019061454618,
        "RAAN(deg)": 44.99957995086026,
        "Satellite Name": "Test1 215",
        "Satellite Number": 215,
        "Semi-Major Axis(m)": 6980739.136638005,
        "Time(s)": 10
    },
    {
        "Altitude(m)": 624680.3557854141,
        "Argument of Periapsis(deg)": 0.0002083789182659281,
        "Eccentricity": 0.0,
        "Inclination(deg)": 60.0,
        "Latitude(deg)": -58.831817298005014,
        "Longitude(deg)": -126.73704677665046,
        "Mean Anomaly(deg)": 279.4220122909236,
        "RAAN(deg)": 44.99915990172052,
        "Satellite Name": "Test1 215",
        "Satellite Number": 215,
        "Semi-Major Axis(m)": 6980739.136638005,
        "Time(s)": 20
    },
    {
        "Altitude(m)": 624619.4666416532,
        "Argument of Periapsis(deg)": 0.00031256837739889213,
        "Eccentricity": 0.0,
        "Inclination(deg)": 60.0,
        "Latitude(deg)": -58.65881108564906,
        "Longitude(deg)": -125.639153615191,
        "Mean Anomaly(deg)": 280.0421184363855,
        "RAAN(deg)": 44.99873985258077,
        "Satellite Name": "Test1 215",
        "Satellite Number": 215,
        "Semi-Major Axis(m)": 6980739.136638005,
        "Time(s)": 30
    },
    {
        "Altitude(m)": 624554.8403045766,
        "Argument of Periapsis(deg)": 0.0004167578365318562,
        "Eccentricity": 0.0,
        "Inclination(deg)": 60.0,
        "Latitude(deg)": -58.47582088523928,
        "Longitude(deg)": -124.55278889019344,
        "Mean Anomaly(deg)": 280.6622245818473,
        "RAAN(deg)": 44.99831980344103,
        "Satellite Name": "Test1 215",
        "Satellite Number": 215,
        "Semi-Major Axis(m)": 6980739.136638005,
        "Time(s)": 40
    },
    {
        "Altitude(m)": 624486.5021833983,
        "Argument of Periapsis(deg)": 0.0005209472956648203,
        "Eccentricity": 0.0,
        "Inclination(deg)": 60.0,
        "Latitude(deg)": -58.28301940016116,
        "Longitude(deg)": -123.47838124154725,
        "Mean Anomaly(deg)": 281.28233072730916,
        "RAAN(deg)": 44.99789975430129,
        "Satellite Name": "Test1 215",
        "Satellite Number": 215,
        "Semi-Major Axis(m)": 6980739.136638005,
        "Time(s)": 50
    },
    {
        "Altitude(m)": 624414.4791435909,
        "Argument of Periapsis(deg)": 0.0006251367547977843,
        "Eccentricity": 0.0,
        "Inclination(deg)": 60.0,
        "Latitude(deg)": -58.08058431922196,
        "Longitude(deg)": -122.41631950259911,
        "Mean Anomaly(deg)": 281.902436872771,
        "RAAN(deg)": 44.997479705161545,
        "Satellite Name": "Test1 215",
        "Satellite Number": 215,
        "Semi-Major Axis(m)": 6980739.136638005,
        "Time(s)": 60
    },
    {
        "Altitude(m)": 624338.7994955592,
        "Argument of Periapsis(deg)": 0.0007293262139307483,
        "Eccentricity": 0.0,
        "Inclination(deg)": 60.0,
        "Latitude(deg)": -57.86869763125296,
        "Longitude(deg)": -121.3669524993729,
        "Mean Anomaly(deg)": 282.5225430182328,
        "RAAN(deg)": 44.9970596560218,
        "Satellite Name": "Test1 215",
        "Satellite Number": 215,
        "Semi-Major Axis(m)": 6980739.136638005,
        "Time(s)": 70
    },
    {
        "Altitude(m)": 624259.492982677,
        "Argument of Periapsis(deg)": 0.0008335156730637124,
        "Eccentricity": 0.0,
        "Inclination(deg)": 60.0,
        "Latitude(deg)": -57.6475449556884,
        "Longitude(deg)": -120.3305906059527,
        "Mean Anomaly(deg)": 283.1426491636946,
        "RAAN(deg)": 44.996639606882056,
        "Satellite Name": "Test1 215",
        "Satellite Number": 215,
        "Semi-Major Axis(m)": 6980739.136638005,
        "Time(s)": 80
    },
    {
        "Altitude(m)": 624176.5907687377,
        "Argument of Periapsis(deg)": 0.0009377051321966765,
        "Eccentricity": 0.0,
        "Inclination(deg)": 60.0,
        "Latitude(deg)": -57.417314893318675,
        "Longitude(deg)": -119.30750600707383,
        "Mean Anomaly(deg)": 283.76275530915643,
        "RAAN(deg)": 44.996219557742315,
        "Satellite Name": "Test1 215",
        "Satellite Number": 215,
        "Semi-Major Axis(m)": 6980739.136638005,
        "Time(s)": 90
    },
    {
        "Altitude(m)": 624090.1254247826,
        "Argument of Periapsis(deg)": 0.0010418945913296407,
        "Eccentricity": 0.0,
        "Inclination(deg)": 60.0,
        "Latitude(deg)": -57.17819840084777,
        "Longitude(deg)": -118.29793315663767,
        "Mean Anomaly(deg)": 284.3828614546183,
        "RAAN(deg)": 44.99579950860257,
        "Satellite Name": "Test1 215",
        "Satellite Number": 215,
        "Semi-Major Axis(m)": 6980739.136638005,
        "Time(s)": 100
    },
    {
        "Altitude(m)": 624000.1309153312,
        "Argument of Periapsis(deg)": 0.0011460840504626045,
        "Eccentricity": 0.0,
        "Inclination(deg)": 60.0,
        "Latitude(deg)": -56.930388192313174,
        "Longitude(deg)": -117.30207092041566,
        "Mean Anomaly(deg)": 285.0029676000801,
        "RAAN(deg)": 44.99537945946283,
        "Satellite Name": "Test1 215",
        "Satellite Number": 215,
        "Semi-Major Axis(m)": 6980739.136638005,
        "Time(s)": 110
    },
    {
        "Altitude(m)": 623906.6425840168,
        "Argument of Periapsis(deg)": 0.0012502735095955685,
        "Eccentricity": 0.0,
        "Inclination(deg)": 60.0,
        "Latitude(deg)": -56.67407816987416,
        "Longitude(deg)": -116.32008335260817,
        "Mean Anomaly(deg)": 285.623073745542,
        "RAAN(deg)": 44.99495941032309,
        "Satellite Name": "Test1 215",
        "Satellite Number": 215,
        "Semi-Major Axis(m)": 6980739.136638005,
        "Time(s)": 120
    },
    {
        "Altitude(m)": 623809.6971386331,
        "Argument of Periapsis(deg)": 0.0013544629687285324,
        "Eccentricity": 0.0,
        "Inclination(deg)": 60.0,
        "Latitude(deg)": -56.40946288592851,
        "Longitude(deg)": -115.35210059501598,
        "Mean Anomaly(deg)": 286.24317989100376,
        "RAAN(deg)": 44.99453936118335,
        "Satellite Name": "Test1 215",
        "Satellite Number": 215,
        "Semi-Major Axis(m)": 6980739.136638005,
        "Time(s)": 130
    },
    {
        "Altitude(m)": 623709.3326355979,
        "Argument of Periapsis(deg)": 0.0014586524278614966,
        "Eccentricity": 0.0,
        "Inclination(deg)": 60.0,
        "Latitude(deg)": -56.1367370380049,
        "Longitude(deg)": -114.3982213883828,
        "Mean Anomaly(deg)": 286.86328603646564,
        "RAAN(deg)": 44.99411931204361,
        "Satellite Name": "Test1 215",
        "Satellite Number": 215,
        "Semi-Major Axis(m)": 6980739.136638005,
        "Time(s)": 140
    },
    {
        "Altitude(m)": 623605.5884638269,
        "Argument of Periapsis(deg)": 0.0015628418869944607,
        "Eccentricity": 0.0,
        "Inclination(deg)": 60.0,
        "Latitude(deg)": -55.856094997403,
        "Longitude(deg)": -113.45851414795328,
        "Mean Anomaly(deg)": 287.48339218192746,
        "RAAN(deg)": 44.99369926290386,
        "Satellite Name": "Test1 215",
        "Satellite Number": 215,
        "Semi-Major Axis(m)": 6980739.136638005,
        "Time(s)": 150
    },
    {
        "Altitude(m)": 623498.5053280441,
        "Argument of Periapsis(deg)": 0.0016670313461274247,
        "Eccentricity": 0.0,
        "Inclination(deg)": 60.0,
        "Latitude(deg)": -55.567730372108954,
        "Longitude(deg)": -112.53301809526458,
        "Mean Anomaly(deg)": 288.1034983273893,
        "RAAN(deg)": 44.99327921376411,
        "Satellite Name": "Test1 215",
        "Satellite Number": 215,
        "Semi-Major Axis(m)": 6980739.136638005,
        "Time(s)": 160
    },
    {
        "Altitude(m)": 623388.1252315204,
        "Argument of Periapsis(deg)": 0.0017712208052603888,
        "Eccentricity": 0.0,
        "Inclination(deg)": 60.0,
        "Latitude(deg)": -55.27183560411413,
        "Longitude(deg)": -111.62174593971046,
        "Mean Anomaly(deg)": 288.7236044728511,
        "RAAN(deg)": 44.99285916462437,
        "Satellite Name": "Test1 215",
        "Satellite Number": 215,
        "Semi-Major Axis(m)": 6980739.136638005,
        "Time(s)": 170
    },
    {
        "Altitude(m)": 623274.4914582528,
        "Argument of Periapsis(deg)": 0.001875410264393353,
        "Eccentricity": 0.0,
        "Inclination(deg)": 60.0,
        "Latitude(deg)": -54.968601600913836,
        "Longitude(deg)": -110.72468506643187,
        "Mean Anomaly(deg)": 289.3437106183129,
        "RAAN(deg)": 44.99243911548463,
        "Satellite Name": "Test1 215",
        "Satellite Number": 215,
        "Semi-Major Axis(m)": 6980739.136638005,
        "Time(s)": 180
    },
    {
        "Altitude(m)": 623157.6485545841,
        "Argument of Periapsis(deg)": 0.0019795997235263173,
        "Eccentricity": 0.0,
        "Inclination(deg)": 60.0,
        "Latitude(deg)": -54.65821740064859,
        "Longitude(deg)": -109.841798727438,
        "Mean Anomaly(deg)": 289.96381676377473,
        "RAAN(deg)": 44.99201906634489,
        "Satellite Name": "Test1 215",
        "Satellite Number": 215,
        "Semi-Major Axis(m)": 6980739.136638005,
        "Time(s)": 190
    }
]